QIANFAN-1               
1 60379U 24140A   25257.22267951  .00000047  00000+0  53659-4 0  9993
2 60379  88.9792 308.5564 0019706 112.2132 248.1112 13.50963961 55266
QIANFAN-2               
1 60380U 24140B   25257.25129977  .00000058  00000+0  71656-4 0  9992
2 60380  88.9778 308.4051 0014990  88.0974 272.1894 13.50964330 55328
QIANFAN-3               
1 60381U 24140C   25257.25958247  .00000048  00000+0  55898-4 0  9992
2 60381  88.9771 308.5435 0016178  98.7857 261.5127 13.50964426 55234
QIANFAN-4               
1 60382U 24140D   25257.23500597  .00000041  00000+0  43882-4 0  9995
2 60382  88.9795 308.4213 0015240  90.3607 269.9290 13.50963929 55357
QIANFAN-5               
1 60383U 24140E   25257.21026846  .00000052  00000+0  61342-4 0  9997
2 60383  88.9770 308.5743 0017422 108.6811 251.6233 13.50967346 55211
QIANFAN-6               
1 60384U 24140F   25257.23085042  .00000040  00000+0  43742-4 0  9994
2 60384  88.9796 308.2945 0015387  95.3787 264.9120 13.50963452 55411
QIANFAN-7               
1 60385U 24140G   25257.23595604  .00000336  00000+0  13054-3 0  9995
2 60385  88.9796 304.2495 0013794 344.4797  15.5972 14.27546817 57624
QIANFAN-8               
1 60386U 24140H   25257.23906128  .00000043  00000+0  47725-4 0  9991
2 60386  88.9798 308.5296 0018845  97.1521 263.1774 13.50967330 55263
